{
    "links": {
        "self": "http://www.neowsapp.com/rest/v1/neo/54096938?api_key=iIulBulltgU6a56xZRHN4H3l9WmuAYTsLGpBGhQ2"
    },
    "id": "54096938",
    "neo_reference_id": "54096938",
    "name": "(2020 WR5)",
    "designation": "2020 WR5",
    "nasa_jpl_url": "http://ssd.jpl.nasa.gov/sbdb.cgi?sstr=54096938",
    "absolute_magnitude_h": 20.363,
    "estimated_diameter": {
        "kilometers": {
            "estimated_diameter_min": 0.2248821458,
            "estimated_diameter_max": 0.5028517649
        },
        "meters": {
            "estimated_diameter_min": 224.8821457993,
            "estimated_diameter_max": 502.8517649334
        },
        "miles": {
            "estimated_diameter_min": 0.1397352438,
            "estimated_diameter_max": 0.312457504
        },
        "feet": {
            "estimated_diameter_min": 737.8023392243,
            "estimated_diameter_max": 1649.7761844639
        }
    },
    "is_potentially_hazardous_asteroid": false,
    "close_approach_data": [
        {
            "close_approach_date": "2020-12-28",
            "close_approach_date_full": "2020-Dec-28 09:13",
            "epoch_date_close_approach": 1609146780000,
            "relative_velocity": {
                "kilometers_per_second": "23.0385940087",
                "kilometers_per_hour": "82938.9384312962",
                "miles_per_hour": "51535.0309380463"
            },
            "miss_distance": {
                "astronomical": "0.4384730228",
                "lunar": "170.5660058692",
                "kilometers": "65594630.263341436",
                "miles": "40758613.2436303768"
            },
            "orbiting_body": "Earth"
        }
    ],
    "orbital_data": {
        "orbit_id": "1",
        "orbit_determination_date": "2020-12-01 12:42:02",
        "first_observation_date": "2020-11-26",
        "last_observation_date": "2020-12-01",
        "data_arc_in_days": 5,
        "observations_used": 17,
        "orbit_uncertainty": "9",
        "minimum_orbit_intersection": ".228251",
        "jupiter_tisserand_invariant": "3.923",
        "epoch_osculation": "2459182.5",
        "eccentricity": ".5516223920351954",
        "semi_major_axis": "1.69909960662394",
        "inclination": "25.44988684183282",
        "ascending_node_longitude": "162.3001854782983",
        "orbital_period": "808.9593256076948",
        "perihelion_distance": ".7618382173119829",
        "perihelion_argument": "359.6291942676622",
        "aphelion_distance": "2.636360995935898",
        "perihelion_time": "2459241.189205156528",
        "mean_anomaly": "333.8823533056146",
        "mean_motion": ".445016193774101",
        "equinox": "J2000",
        "orbit_class": {
            "orbit_class_type": "APO",
            "orbit_class_description": "Near-Earth asteroid orbits which cross the Earth’s orbit similar to that of 1862 Apollo",
            "orbit_class_range": "a (semi-major axis) > 1.0 AU; q (perihelion) < 1.017 AU"
        }
    },
    "is_sentry_object": false
}